ORBCOMM FM115 [+]       
1 41186U 15081H   23239.16367087  .00000683  00000+0  17711-3 0  9998
2 41186  46.9993 291.5737 0001734 272.0950  87.9737 14.59849389411250
ORBCOMM FM108 [+]       
1 41187U 15081J   23239.24725385  .00001091  00000+0  28414-3 0  9993
2 41187  47.0063 337.4619 0002739 192.9208 167.1607 14.55855216410564
ORBCOMM FM117 [+]       
1 41188U 15081K   23239.69270504  .00001078  00000+0  28111-3 0  9990
2 41188  47.0023 334.3391 0003573 199.9586 160.1160 14.55846324410722
ORBCOMM FM116 [+]       
1 41189U 15081L   23239.61407390  .00000719  00000+0  20003-3 0  9991
2 41189  47.0023  64.5126 0002348 266.8207  93.2409 14.55848958409549
